GEESAT-6 H              
1 65719U 25214H   25270.45925744  .00002895  00000+0  30933-3 0  9992
2 65719  49.9838  88.0128 0014622 308.6477  51.3155 14.91538278   488
GEESAT-6 J              
1 65720U 25214J   25268.71725417  .00000662  00000+0  89701-4 0  9993
2 65720  49.9870  96.1910 0014193 302.2796  57.6770 14.91420276   213
GEESAT-6 K              
1 65721U 25214K   25270.39238947 -.00000342  00000+0 -95043-5 0  9992
2 65721  49.9858  88.3272 0014641 308.1239  51.8382 14.91247625   466
GEESAT-6 L              
1 65722U 25214L   25268.71720145  .00000662  00000+0  89607-4 0  9993
2 65722  49.9877  96.1842 0014904 301.1402  58.8077 14.91482218   215
GEESAT-6 M              
1 65723U 25214M   25270.86097386  .00005031  00000+0  51784-3 0  9996
2 65723  49.9854  86.1235 0015114 309.2885  50.6715 14.91653279   535
1998-067XH              
1 65729U 98067XH  25270.87979164  .00084515  00000+0  13407-2 0  9995
2 65729  51.6330 157.9697 0003965  77.7944 282.3490 15.52634451  1313
1998-067XJ              
1 65730U 98067XJ  25270.62045157  .00149686  00000+0  22796-2 0  9998
2 65730  51.6322 159.2388 0001086 211.3108 148.7817 15.53473124  1270
1998-067XK              
1 65731U 98067XK  25270.17218471  .00068668  00000+0  11066-2 0  9998
2 65731  51.6327 161.4948 0000644 144.7681 215.3352 15.52295337  1202
RSP-03                  
1 65732U 98067XL  25270.88009779  .00075567  00000+0  12063-2 0  9990
2 65732  51.6326 157.9721 0000512 162.5786 197.5222 15.52515584  1328
1998-067XM              
1 65733U 98067XM  25270.87950687  .00091973  00000+0  14516-2 0  9997
2 65733  51.6326 157.9681 0003817  79.4027 280.7393 15.52738429  1328
FENGYUN 3H              
1 65815U 25219A   25270.98142227  .00000060  00000+0  43806-4 0  9995
2 65815  98.6426 212.2535 0009268 245.7671 114.2541 14.25570980   176
CZ-4C R/B               
1 65816U 25219B   25270.96010832  .00000357  00000+0  90736-4 0  9993
2 65816  98.6301 212.2825 0122001  38.7344 322.2520 14.52795161   177
HULIANWANG DIGUI 11A    
1 65817U 25220A   25270.94179075  .00000024  00000+0  82182-5 0  9997
2 65817  86.4966 133.2818 0008455 220.7992 139.2535 13.69064309    62
HULIANWANG DIGUI 11B    
1 65818U 25220B   25270.94177175  .00000039  00000+0  26359-4 0  9996
2 65818  86.4980 133.2839 0007941 221.0277 139.0286 13.69135574    65
HULIANWANG DIGUI 11C    
1 65819U 25220C   25270.94173544  .00000039  00000+0  26247-4 0  9999
2 65819  86.4907 133.2787 0007368 215.1762 144.8912 13.69275584    69
HULIANWANG DIGUI 11D    
1 65820U 25220D   25270.94170309  .00000039  00000+0  26149-4 0  9998
2 65820  86.4971 133.2846 0006984 207.3532 152.7261 13.69402304    66
HULIANWANG DIGUI 11E    
1 65821U 25220E   25270.94168297  .00000039  00000+0  26125-4 0  9996
2 65821  86.4960 133.2825 0006541 206.4552 153.6275 13.69475547    67
CZ-6A R/B               
1 65822U 25220F   25271.00695492  .00000035  00000+0  11224-4 0  9997
2 65822  86.5076 133.2561 0105604 112.3706 248.8699 13.94165109    76
